HST                     
1 20580U 90037B   26158.29828937  .00006010  00000+0  18954-3 0  9990
2 20580  28.4712 148.1547 0001938  44.7656 315.3096 15.30642118787059
POLAR                   
1 23802U 96013A   26159.56451730  .00000117  00000+0  00000+0 0  9995
2 23802  79.8436 227.1533 6462019 209.3782  89.3193  1.29846146144740
SWAS                    
1 25560U 98071A   26159.53422963  .00004378  00000+0  27822-3 0  9995
2 25560  69.8962 249.8323 0008944 267.6953  92.3187 15.09572739495965
CXO                     
1 25867U 99040B   26161.44248451  .00000667  00000+0  00000+0 0  9995
2 25867  56.0540 116.8503 7852548 310.2578   0.2529  0.37805334 17299
XMM-NEWTON              
1 25989U 99066A   26161.36780906  .00000089  00000+0  00000+0 0  9993
2 25989  64.5271 283.0748 4677764  65.0342   0.0416  0.50122831 22976
TERRA                   
1 25994U 99068A   26160.14636836  .00000337  00000+0  77614-4 0  9994
2 25994  97.9459 210.0112 0000997 226.6941 217.2265 14.61096650408438
CLUSTER II-FM7 (SAMBA)  
1 26410U 00041A   26161.44626665  .00004459  00000+0  00000+0 0  9993
2 26410 149.9132  49.6129 9048191 266.6863 359.9829  0.44840364 20284
CLUSTER II-FM8 (TANGO)  
1 26464U 00045B   26157.18212104  .00004544  00000+0  00000+0 0  9996
2 26464 150.1407  49.6985 9046201 266.6195   3.2041  0.44406384 20263
ODIN                    
1 26702U 01007A   26160.08640459  .00135654  00000+0  97686-3 0  9998
2 26702  97.3859 200.5220 0006524 153.1212 207.0391 15.73146623388125
TIMED                   
1 26998U 01055B   26159.97954209  .00001343  00000+0  12550-3 0  9999
2 26998  74.0679 251.5439 0000655 351.7754   8.3419 14.95277067329597
CORIOLIS                
1 27640U 03001A   26160.02322940  .00000085  00000+0  60666-4 0  9990
2 27640  98.7126 167.0326 0013009 233.7419 126.2556 14.19942563213064
SORCE                   
1 27651U 03004A   26160.10335366  .00002505  00000+0  19008-3 0  9992
2 27651  39.9917 307.7981 0017672 349.7405  10.3026 15.03669280270686
MOST                    
1 27843U 03031D   26159.97486245  .00000069  00000+0  51936-4 0  9991
2 27843  98.7045 167.8154 0008693 277.3355  82.6834 14.21320823189543
SCISAT 1                
1 27858U 03036A   26160.18958872  .00000486  00000+0  66698-4 0  9991
2 27858  73.9286 187.2332 0008689 256.2691 103.7519 14.81439704230265
SWIFT                   
1 28485U 04047A   26159.59812323  .00052750  00000+0  45448-3 0  9994
2 28485  20.5526 251.1191 0002508 160.7611 199.2930 15.67465385185519
HINODE (SOLAR-B)        
1 29479U 06041A   26160.14578979  .00000674  00000+0  12420-3 0  9995
2 29479  98.0548 176.4169 0016377 317.3478  42.6454 14.68611852 53698
SHIJIAN-6 02A (SJ-6 02A)
1 29505U 06046A   26160.17568330  .00005523  00000+0  28416-3 0  9993
2 29505  97.6367 201.1821 0003853 144.1468 216.0023 15.16847969 71056
SHIJIAN-6 02B (SJ-6 02B)
1 29506U 06046B   26160.14869637  .00001241  00000+0  10082-3 0  9998
2 29506  97.7164 189.2570 0014802  83.4932 276.7977 15.01356449 69530
FGRST (GLAST)           
1 33053U 08029A   26159.97823235  .00003008  00000+0  10744-3 0  9994
2 33053  25.5825 261.4807 0007740 227.0054 132.9836 15.23907653994587
SDO                     
1 36395U 10005A   26159.32339039 -.00000060  00000+0  00000+0 0  9992
2 36395  34.6325  86.4781 0001516  53.0773 131.5755  1.00270840 59972
CRYOSAT 2               
1 36508U 10013A   26160.15567917  .00000115  00000+0  27792-4 0  9990
2 36508  92.0348 275.3497 0002215  86.4816 273.6644 14.51896690856910
X-SAT                   
1 37389U 11015C   26160.22211310 -.00000058  00000+0 -71594-5 0  9990
2 37389  98.3510 137.6253 0014475  11.5793 348.5718 14.25203301786549
GCOM-W1 (SHIZUKU)       
1 38337U 12025A   26160.12697403  .00000414  00000+0  10192-3 0  9995
2 38337  98.2020 100.8048 0001859  80.8593 293.8326 14.57116993747865
NUSTAR                  
1 38358U 12031A   26160.25003471  .00020381  00000+0  12037-2 0  9999
2 38358   6.0262  93.6553 0007808 341.2169  78.2393 15.08719010  1303
NEOSSAT                 
1 39089U 13009D   26160.05618619  .00000123  00000+0  57232-4 0  9991
2 39089  98.4176 340.2824 0009773 271.0567  88.9499 14.35823491695572
BRITE-AUSTRIA           
1 39091U 13009F   26160.05885664  .00000151  00000+0  66011-4 0  9996
2 39091  98.3993 339.6960 0008962 263.9907  96.0258 14.36538801695887
IRIS                    
1 39197U 13033A   26160.08392566  .00000918  00000+0  11130-3 0  9999
2 39197  97.9335 359.3864 0024175 348.9993  11.0690 14.85868723699170
HISAKI (SPRINT-A)       
1 39253U 13049A   26159.87982554  .00000125  00000+0  80800-4 0  9997
2 39253  29.7204 262.2481 0136895 309.5329  49.3214 13.55543816630290
CASSIOPE                
1 39265U 13055A   26160.09064813  .00040702 -59651-6  44862-3 0  9998
2 39265  80.9147  76.5466 0295414  89.5868 273.9205 15.24449678666432
STSAT-3                 
1 39422U 13066G   26160.18892920  .00002767  00000+0  21152-3 0  9995
2 39422  97.6216 130.2063 0010998  65.7851 294.4523 15.02709529683003
SWARM B                 
1 39451U 13067A   26160.14674676  .00002957  00000+0  10539-3 0  9998
2 39451  87.7441 344.7604 0003391  90.2569 269.9069 15.28501902682011
